ALOS (DAICHI)           
1 28931U 06002A   25351.73419158  .00001110  00000+0  19545-3 0  9994
2 28931  98.1098 303.1864 0001361 113.5739 246.5610 14.69501788 61443
H-2A R/B                
1 28932U 06002B   26002.92365143  .00015604  00000+0  80627-3 0  9996
2 28932  98.2329 144.4119 0054692 104.9292 255.8003 15.15067466 84473
RESURS-DK 1             
1 29228U 06021A   26002.86501668  .00005068  00000+0  29791-3 0  9991
2 29228  69.9345  47.2373 0006972 241.4337 118.6127 15.12307246 77578
CZ-4B R/B               
1 29507U 06046C   26002.69301558  .00008150  00000+0  41978-3 0  9991
2 29507  97.5705  47.7747 0034915 134.4698 225.9399 15.16121749 50046
CZ-2C R/B               
1 31114U 07010B   26002.92487404  .00000310  00000+0  16100-3 0  9990
2 31114  98.3975 119.5097 0059815 124.9357 235.7460 14.20220260970387
COSMO-SKYMED 1          
1 31598U 07023A   26002.99326308  .00006901  00000+0  62095-3 0  9998
2 31598  97.8826 193.5340 0001298  88.8508 271.2862 14.95956063  5089
COSMOS 2428             
1 31792U 07029A   26002.97765261  .00000345  00000+0  21076-3 0  9993
2 31792  70.9379 341.2881 0004896 353.9653   6.1408 14.12901117954810
SL-16 R/B               
1 31793U 07029B   26002.95407627  .00000175  00000+0  11570-3 0  9990
2 31793  70.9774 310.5630 0002076 270.4861 155.0383 14.14825039956079
KORONAS-FOTON           
1 33504U 09003A   26002.98257131  .00015795  00000+0  37277-3 0  9998
2 33504  82.4308 344.0854 0012589  42.9101 317.3125 15.41658690935613
CZ-2C R/B               
1 37731U 11030B   26002.87641083  .00002399  00000+0  30962-3 0  9998
2 37731  97.8437 321.5191 0052095 203.1028 214.5687 14.80978161780351
H-2A R/B                
1 38341U 12025E   26002.93052111  .00004536  00000+0  41684-3 0  9994
2 38341  98.4627 324.7994 0045096 166.1170 194.1300 14.94605579738399
SHIJIAN-16 (SJ-16)      
1 39358U 13057A   26002.99235079  .00004457  00000+0  44006-3 0  9994
2 39358  74.9737 309.4382 0017959 270.7961  89.1169 14.92083032661705
