CCSDS_OMM_VERS = 2.0
CREATION_DATE  = 
ORIGINATOR     = 

OBJECT_NAME    = ALOS (DAICHI)
OBJECT_ID      = 2006-002A
CENTER_NAME    = EARTH
REF_FRAME      = TEME
TIME_SYSTEM    = UTC
MEAN_ELEMENT_THEORY = SGP/SGP4

EPOCH          = 2025-12-17T17:37:14.152512
MEAN_MOTION    = 14.69501788
ECCENTRICITY   = .00013612
INCLINATION    = 98.1098
RA_OF_ASC_NODE = 303.1864
ARG_OF_PERICENTER = 113.5739
MEAN_ANOMALY   = 246.5610

EPHEMERIS_TYPE = 0
CLASSIFICATION_TYPE = U
NORAD_CAT_ID   = 28931
ELEMENT_SET_NO = 999
REV_AT_EPOCH   = 6144
BSTAR          = .19545051E-3
MEAN_MOTION_DOT = .111E-4
MEAN_MOTION_DDOT = 0

CCSDS_OMM_VERS = 2.0
CREATION_DATE  = 
ORIGINATOR     = 

OBJECT_NAME    = H-2A R/B
OBJECT_ID      = 2006-002B
CENTER_NAME    = EARTH
REF_FRAME      = TEME
TIME_SYSTEM    = UTC
MEAN_ELEMENT_THEORY = SGP/SGP4

EPOCH          = 2026-01-02T22:10:03.483552
MEAN_MOTION    = 15.15067466
ECCENTRICITY   = .00546922
INCLINATION    = 98.2329
RA_OF_ASC_NODE = 144.4119
ARG_OF_PERICENTER = 104.9292
MEAN_ANOMALY   = 255.8003

EPHEMERIS_TYPE = 0
CLASSIFICATION_TYPE = U
NORAD_CAT_ID   = 28932
ELEMENT_SET_NO = 999
REV_AT_EPOCH   = 8447
BSTAR          = .80627473E-3
MEAN_MOTION_DOT = .15604E-3
MEAN_MOTION_DDOT = 0

CCSDS_OMM_VERS = 2.0
CREATION_DATE  = 
ORIGINATOR     = 

OBJECT_NAME    = RESURS-DK 1
OBJECT_ID      = 2006-021A
CENTER_NAME    = EARTH
REF_FRAME      = TEME
TIME_SYSTEM    = UTC
MEAN_ELEMENT_THEORY = SGP/SGP4

EPOCH          = 2026-01-02T20:45:37.441152
MEAN_MOTION    = 15.12307246
ECCENTRICITY   = .00069721
INCLINATION    = 69.9345
RA_OF_ASC_NODE = 47.2373
ARG_OF_PERICENTER = 241.4337
MEAN_ANOMALY   = 118.6127

EPHEMERIS_TYPE = 0
CLASSIFICATION_TYPE = U
NORAD_CAT_ID   = 29228
ELEMENT_SET_NO = 999
REV_AT_EPOCH   = 7757
BSTAR          = .29791135E-3
MEAN_MOTION_DOT = .5068E-4
MEAN_MOTION_DDOT = 0

CCSDS_OMM_VERS = 2.0
CREATION_DATE  = 
ORIGINATOR     = 

OBJECT_NAME    = CZ-4B R/B
OBJECT_ID      = 2006-046C
CENTER_NAME    = EARTH
REF_FRAME      = TEME
TIME_SYSTEM    = UTC
MEAN_ELEMENT_THEORY = SGP/SGP4

EPOCH          = 2026-01-02T16:37:56.546112
MEAN_MOTION    = 15.16121749
ECCENTRICITY   = .00349159
INCLINATION    = 97.5705
RA_OF_ASC_NODE = 47.7747
ARG_OF_PERICENTER = 134.4698
MEAN_ANOMALY   = 225.9399

EPHEMERIS_TYPE = 0
CLASSIFICATION_TYPE = U
NORAD_CAT_ID   = 29507
ELEMENT_SET_NO = 999
REV_AT_EPOCH   = 5004
BSTAR          = .41978168E-3
MEAN_MOTION_DOT = .815E-4
MEAN_MOTION_DDOT = 0

CCSDS_OMM_VERS = 2.0
CREATION_DATE  = 
ORIGINATOR     = 

OBJECT_NAME    = CZ-2C R/B
OBJECT_ID      = 2007-010B
CENTER_NAME    = EARTH
REF_FRAME      = TEME
TIME_SYSTEM    = UTC
MEAN_ELEMENT_THEORY = SGP/SGP4

EPOCH          = 2026-01-02T22:11:49.117056
MEAN_MOTION    = 14.20220260
ECCENTRICITY   = .00598154
INCLINATION    = 98.3975
RA_OF_ASC_NODE = 119.5097
ARG_OF_PERICENTER = 124.9357
MEAN_ANOMALY   = 235.7460

EPHEMERIS_TYPE = 0
CLASSIFICATION_TYPE = U
NORAD_CAT_ID   = 31114
ELEMENT_SET_NO = 999
REV_AT_EPOCH   = 97038
BSTAR          = .16100372E-3
MEAN_MOTION_DOT = .31E-5
MEAN_MOTION_DDOT = 0

CCSDS_OMM_VERS = 2.0
CREATION_DATE  = 
ORIGINATOR     = 

OBJECT_NAME    = COSMO-SKYMED 1
OBJECT_ID      = 2007-023A
CENTER_NAME    = EARTH
REF_FRAME      = TEME
TIME_SYSTEM    = UTC
MEAN_ELEMENT_THEORY = SGP/SGP4

EPOCH          = 2026-01-02T23:50:17.930112
MEAN_MOTION    = 14.95956063
ECCENTRICITY   = .00012987
INCLINATION    = 97.8826
RA_OF_ASC_NODE = 193.5340
ARG_OF_PERICENTER = 88.8508
MEAN_ANOMALY   = 271.2862

EPHEMERIS_TYPE = 0
CLASSIFICATION_TYPE = U
NORAD_CAT_ID   = 31598
ELEMENT_SET_NO = 999
REV_AT_EPOCH   = 508
BSTAR          = .62094811E-3
MEAN_MOTION_DOT = .6901E-4
MEAN_MOTION_DDOT = 0

CCSDS_OMM_VERS = 2.0
CREATION_DATE  = 
ORIGINATOR     = 

OBJECT_NAME    = COSMOS 2428
OBJECT_ID      = 2007-029A
CENTER_NAME    = EARTH
REF_FRAME      = TEME
TIME_SYSTEM    = UTC
MEAN_ELEMENT_THEORY = SGP/SGP4

EPOCH          = 2026-01-02T23:27:49.185504
MEAN_MOTION    = 14.12901117
ECCENTRICITY   = .00048967
INCLINATION    = 70.9379
RA_OF_ASC_NODE = 341.2881
ARG_OF_PERICENTER = 353.9653
MEAN_ANOMALY   = 6.1408

EPHEMERIS_TYPE = 0
CLASSIFICATION_TYPE = U
NORAD_CAT_ID   = 31792
ELEMENT_SET_NO = 999
REV_AT_EPOCH   = 95481
BSTAR          = .21076188E-3
MEAN_MOTION_DOT = .345E-5
MEAN_MOTION_DDOT = 0

CCSDS_OMM_VERS = 2.0
CREATION_DATE  = 
ORIGINATOR     = 

OBJECT_NAME    = SL-16 R/B
OBJECT_ID      = 2007-029B
CENTER_NAME    = EARTH
REF_FRAME      = TEME
TIME_SYSTEM    = UTC
MEAN_ELEMENT_THEORY = SGP/SGP4

EPOCH          = 2026-01-02T22:53:52.189728
MEAN_MOTION    = 14.14825039
ECCENTRICITY   = .00020769
INCLINATION    = 70.9774
RA_OF_ASC_NODE = 310.5630
ARG_OF_PERICENTER = 270.4861
MEAN_ANOMALY   = 155.0383

EPHEMERIS_TYPE = 0
CLASSIFICATION_TYPE = U
NORAD_CAT_ID   = 31793
ELEMENT_SET_NO = 999
REV_AT_EPOCH   = 95607
BSTAR          = .11570058E-3
MEAN_MOTION_DOT = .175E-5
MEAN_MOTION_DDOT = 0

CCSDS_OMM_VERS = 2.0
CREATION_DATE  = 
ORIGINATOR     = 

OBJECT_NAME    = KORONAS-FOTON
OBJECT_ID      = 2009-003A
CENTER_NAME    = EARTH
REF_FRAME      = TEME
TIME_SYSTEM    = UTC
MEAN_ELEMENT_THEORY = SGP/SGP4

EPOCH          = 2026-01-02T23:34:54.161184
MEAN_MOTION    = 15.41658690
ECCENTRICITY   = .00125892
INCLINATION    = 82.4308
RA_OF_ASC_NODE = 344.0854
ARG_OF_PERICENTER = 42.9101
MEAN_ANOMALY   = 317.3125

EPHEMERIS_TYPE = 0
CLASSIFICATION_TYPE = U
NORAD_CAT_ID   = 33504
ELEMENT_SET_NO = 999
REV_AT_EPOCH   = 93561
BSTAR          = .37276971E-3
MEAN_MOTION_DOT = .15795E-3
MEAN_MOTION_DDOT = 0

CCSDS_OMM_VERS = 2.0
CREATION_DATE  = 
ORIGINATOR     = 

OBJECT_NAME    = CZ-2C R/B
OBJECT_ID      = 2011-030B
CENTER_NAME    = EARTH
REF_FRAME      = TEME
TIME_SYSTEM    = UTC
MEAN_ELEMENT_THEORY = SGP/SGP4

EPOCH          = 2026-01-02T21:02:01.895712
MEAN_MOTION    = 14.80978161
ECCENTRICITY   = .00520953
INCLINATION    = 97.8437
RA_OF_ASC_NODE = 321.5191
ARG_OF_PERICENTER = 203.1028
MEAN_ANOMALY   = 214.5687

EPHEMERIS_TYPE = 0
CLASSIFICATION_TYPE = U
NORAD_CAT_ID   = 37731
ELEMENT_SET_NO = 999
REV_AT_EPOCH   = 78035
BSTAR          = .30961766E-3
MEAN_MOTION_DOT = .2399E-4
MEAN_MOTION_DDOT = 0

CCSDS_OMM_VERS = 2.0
CREATION_DATE  = 
ORIGINATOR     = 

OBJECT_NAME    = H-2A R/B
OBJECT_ID      = 2012-025E
CENTER_NAME    = EARTH
REF_FRAME      = TEME
TIME_SYSTEM    = UTC
MEAN_ELEMENT_THEORY = SGP/SGP4

EPOCH          = 2026-01-02T22:19:57.023904
MEAN_MOTION    = 14.94605579
ECCENTRICITY   = .00450966
INCLINATION    = 98.4627
RA_OF_ASC_NODE = 324.7994
ARG_OF_PERICENTER = 166.1170
MEAN_ANOMALY   = 194.1300

EPHEMERIS_TYPE = 0
CLASSIFICATION_TYPE = U
NORAD_CAT_ID   = 38341
ELEMENT_SET_NO = 999
REV_AT_EPOCH   = 73839
BSTAR          = .41684271E-3
MEAN_MOTION_DOT = .4536E-4
MEAN_MOTION_DDOT = 0

CCSDS_OMM_VERS = 2.0
CREATION_DATE  = 
ORIGINATOR     = 

OBJECT_NAME    = SHIJIAN-16 (SJ-16)
OBJECT_ID      = 2013-057A
CENTER_NAME    = EARTH
REF_FRAME      = TEME
TIME_SYSTEM    = UTC
MEAN_ELEMENT_THEORY = SGP/SGP4

EPOCH          = 2026-01-02T23:48:59.108256
MEAN_MOTION    = 14.92083032
ECCENTRICITY   = .00179596
INCLINATION    = 74.9737
RA_OF_ASC_NODE = 309.4382
ARG_OF_PERICENTER = 270.7961
MEAN_ANOMALY   = 89.1169

EPHEMERIS_TYPE = 0
CLASSIFICATION_TYPE = U
NORAD_CAT_ID   = 39358
ELEMENT_SET_NO = 999
REV_AT_EPOCH   = 66170
BSTAR          = .44005725E-3
MEAN_MOTION_DOT = .4457E-4
MEAN_MOTION_DDOT = 0

